NORAD_CAT_ID,OBJECT_NAME,OBJECT_TYPE,EPOCH,MEAN_MOTION,ECCENTRICITY,INCLINATION,RA_OF_ASC_NODE,ARG_OF_PERICENTER,MEAN_ANOMALY,BSTAR,MEAN_MOTION_DOT,MEAN_MOTION_DDOT,TLE_LINE0,TLE_LINE1,TLE_LINE2,SEMIMAJOR_AXIS,PERIOD,APOGEE,PERIGEE,DECAYED
55274.0,STARLINK-5236,PAYLOAD,2024-06-21 04:53:43,14.98329089,0.0003501,69.9983,164.2111,272.4571,87.6187,-6.8204e-06,-1.74e-06,0.0,0 STARLINK-5236,1 55274U 23010F   24173.20397787 -.00000174  00000-0 -68204-5 0  9998,2 55274  69.9983 164.2111 0003501 272.4571  87.6187 14.98329089 79110,6950.196,96.107,574.494,569.627,0.0
55274.0,STARLINK-5236,PAYLOAD,2024-06-21 09:42:07,14.98330224,0.0003401,69.9983,163.7068,268.1111,91.9659,-2.1934e-05,-3.55e-06,0.0,0 STARLINK-5236,1 55274U 23010F   24173.40425679 -.00000355  00000-0 -21934-4 0  9991,2 55274  69.9983 163.7068 0003401 268.1111  91.9659 14.98330224 79469,6950.192,96.107,574.421,569.693,0.0
55274.0,STARLINK-5236,PAYLOAD,2024-06-21 22:31:12,14.98334882,0.0003267,69.9989,162.3592,265.9668,94.1117,-0.0003079,-3.765e-05,0.0,0 STARLINK-5236,1 55274U 23010F   24173.93834169 -.00003765  00000-0 -30790-3 0  9994,2 55274  69.9989 162.3592 0003267 265.9668  94.1117 14.98334882 79541,6950.178,96.107,574.313,569.772,0.0
55274.0,STARLINK-5236,PAYLOAD,2024-06-22 04:55:44,14.98334104,0.0003208,69.999,161.686,267.0343,93.0449,-0.00028089,-3.443e-05,0.0,0 STARLINK-5236,1 55274U 23010F   24174.20538076 -.00003443  00000-0 -28089-3 0  9994,2 55274  69.9990 161.6860 0003208 267.0343  93.0449 14.98334104 79263,6950.18,96.107,574.275,569.816,0.0
55274.0,STARLINK-5236,PAYLOAD,2024-06-22 09:44:09,14.98332994,0.0002968,69.9995,161.1817,266.735,93.347,-0.0002812,-3.447e-05,0.0,0 STARLINK-5236,1 55274U 23010F   24174.40566126 -.00003447  00000-0 -28120-3 0  9993,2 55274  69.9995 161.1817 0002968 266.7350  93.3470 14.98332994 79612,6950.184,96.107,574.111,569.986,0.0
55274.0,STARLINK-5236,PAYLOAD,2024-06-23 04:57:46,14.98319972,0.0003052,69.9993,159.1618,269.1233,90.9577,3.2324e-05,2.93e-06,0.0,0 STARLINK-5236,1 55274U 23010F   24175.20678364  .00000293  00000-0  32324-4 0  9996,2 55274  69.9993 159.1618 0003052 269.1233  90.9577 14.98319972 79418,6950.224,96.108,574.21,569.968,0.0
55274.0,STARLINK-5236,PAYLOAD,2024-06-23 09:46:10,14.9832068,0.0003038,69.9994,158.6569,269.1257,90.9554,3.969e-05,3.8e-06,0.0,0 STARLINK-5236,1 55274U 23010F   24175.40706433  .00000380  00000-0  39690-4 0  9997,2 55274  69.9994 158.6569 0003038 269.1257  90.9554 14.98320680 79769,6950.222,96.108,574.198,569.975,0.0
55274.0,STARLINK-5236,PAYLOAD,2024-06-23 22:35:14,14.98323604,0.0003156,69.9991,157.3102,271.1509,88.9289,9.2845e-05,1.015e-05,0.0,0 STARLINK-5236,1 55274U 23010F   24175.94114372  .00001015  00000-0  92845-4 0  9998,2 55274  69.9991 157.3102 0003156 271.1509  88.9289 14.98323604 79849,6950.213,96.107,574.271,569.884,0.0
55274.0,STARLINK-5236,PAYLOAD,2024-06-24 08:12:03,14.98327637,0.0003102,69.9992,156.3003,270.2252,89.8552,0.00013085,1.469e-05,0.0,0 STARLINK-5236,1 55274U 23010F   24176.34170154  .00001469  00000-0  13085-3 0  9994,2 55274  69.9992 156.3003 0003102 270.2252  89.8552 14.98327637 79589,6950.2,96.107,574.221,569.909,0.0
55274.0,STARLINK-5236,PAYLOAD,2024-06-25 08:14:04,14.98327909,0.0003015,69.9994,153.7761,268.5977,91.4836,6.9185e-05,7.33e-06,0.0,0 STARLINK-5236,1 55274U 23010F   24177.34310535  .00000733  00000-0  69185-4 0  9990,2 55274  69.9994 153.7761 0003015 268.5977  91.4836 14.98327909 79733,6950.199,96.107,574.16,569.969,0.0
55274.0,STARLINK-5236,PAYLOAD,2024-06-25 22:39:16,14.98331607,0.0002949,69.9994,152.2603,267.9088,92.1733,1.5529e-05,9.2e-07,0.0,0 STARLINK-5236,1 55274U 23010F   24177.94394480  .00000092  00000-0  15529-4 0  9998,2 55274  69.9994 152.2603 0002949 267.9088  92.1733 14.98331607 80144,6950.188,96.107,574.103,570.003,0.0
55274.0,STARLINK-5236,PAYLOAD,2024-06-26 08:16:05,14.98333591,0.0002943,69.9993,151.2507,267.6989,92.3833,3.868e-05,3.69e-06,0.0,0 STARLINK-5236,1 55274U 23010F   24178.34450258  .00000369  00000-0  38680-4 0  9999,2 55274  69.9993 151.2507 0002943 267.6989  92.3833 14.98333591 79882,6950.182,96.107,574.092,570.001,0.0
55274.0,STARLINK-5236,PAYLOAD,2024-06-26 22:41:17,14.98330667,0.0002836,69.9996,149.7371,262.4892,97.5945,4.4177e-05,4.34e-06,0.0,0 STARLINK-5236,1 55274U 23010F   24178.94534339  .00000434  00000-0  44177-4 0  9999,2 55274  69.9996 149.7371 0002836 262.4892  97.5945 14.98330667 80292,6950.191,96.107,574.027,570.085,0.0
55274.0,STARLINK-5236,PAYLOAD,2024-06-27 05:05:48,14.98344372,0.0002309,70.0031,149.0684,209.2209,150.8821,0.00027318,3.169e-05,0.0,0 STARLINK-5236,1 55274U 23010F   24179.21236831  .00003169  00000-0  27318-3 0  9991,2 55274  70.0031 149.0684 0002309 209.2209 150.8821 14.98344372 80015,6950.148,96.106,573.618,570.409,0.0
55274.0,STARLINK-5236,PAYLOAD,2024-06-27 08:18:03,14.98359953,0.0002487,69.9998,148.7281,261.1429,98.9448,0.00034894,4.076e-05,0.0,0 STARLINK-5236,1 55274U 23010F   24179.34587434  .00004076  00000-0  34894-3 0  9998,2 55274  69.9998 148.7281 0002487 261.1429  98.9448 14.98359953 80031,6950.1,96.105,573.694,570.237,0.0
55274.0,STARLINK-5236,PAYLOAD,2024-06-27 14:42:36,14.9834349,0.0002788,70.0,148.0524,270.4654,89.6186,0.00012203,1.364e-05,0.0,0 STARLINK-5236,1 55274U 23010F   24179.61292621  .00001364  00000-0  12203-3 0  9996,2 55274  70.0000 148.0524 0002788 270.4654  89.6186 14.98343490 80077,6950.151,96.106,573.954,570.078,0.0
55274.0,STARLINK-5236,PAYLOAD,2024-06-27 22:43:17,14.98335363,0.0002074,69.9999,147.2149,247.0451,113.0489,3.1337e-05,2.81e-06,0.0,0 STARLINK-5236,1 55274U 23010F   24179.94673411  .00000281  00000-0  31337-4 0  9999,2 55274  69.9999 147.2149 0002074 247.0451 113.0489 14.98335363 80447,6950.176,96.107,573.483,570.6,0.0
55274.0,STARLINK-5236,PAYLOAD,2024-06-28 05:07:50,14.98325163,0.0002843,70.0004,146.5436,237.6497,122.4387,-7.3773e-05,-9.73e-06,0.0,0 STARLINK-5236,1 55274U 23010F   24180.21378226 -.00000973  00000-0 -73773-4 0  9997,2 55274  70.0004 146.5436 0002843 237.6497 122.4387 14.98325163 80164,6950.208,96.107,574.049,570.097,0.0
55274.0,STARLINK-5236,PAYLOAD,2024-06-28 08:20:07,14.98323638,0.0002572,70.0,146.2022,261.5337,98.553,-8.0856e-05,-1.057e-05,0.0,0 STARLINK-5236,1 55274U 23010F   24180.34730463 -.00001057  00000-0 -80856-4 0  9990,2 55274  70.0000 146.2022 0002572 261.5337  98.5530 14.98323638 80502,6950.213,96.107,573.865,570.29,0.0
55274.0,STARLINK-5236,PAYLOAD,2024-06-28 22:45:19,14.98340002,0.0002773,69.9993,144.6871,268.011,92.0731,-0.00016022,-2.005e-05,0.0,0 STARLINK-5236,1 55274U 23010F   24180.94813779 -.00002005  00000-0 -16022-3 0  9995,2 55274  69.9993 144.6871 0002773 268.0110  92.0731 14.98340002 80593,6950.162,96.106,573.954,570.1,0.0
55274.0,STARLINK-5236,PAYLOAD,2024-06-29 03:33:43,14.98343237,0.0002692,69.9994,144.1821,266.4971,93.588,-0.00015271,-1.915e-05,0.0,0 STARLINK-5236,1 55274U 23010F   24181.14841464 -.00001915  00000-0 -15271-3 0  9994,2 55274  69.9994 144.1821 0002692 266.4971  93.5880 14.98343237 80304,6950.152,96.106,573.888,570.146,0.0
55274.0,STARLINK-5236,PAYLOAD,2024-06-29 14:46:39,14.98341631,0.0002988,69.9987,143.0012,274.2489,85.8328,-0.00035141,-4.285e-05,0.0,0 STARLINK-5236,1 55274U 23010F   24181.61573625 -.00004285  00000-0 -35141-3 0  9998,2 55274  69.9987 143.0012 0002988 274.2489  85.8328 14.98341631 80694,6950.157,96.106,574.099,569.945,0.0
55274.0,STARLINK-5236,PAYLOAD,2024-06-29 22:47:20,14.98313417,0.0002395,69.9994,142.1621,266.3924,93.6961,8.5407e-05,9.26e-06,0.0,0 STARLINK-5236,1 55274U 23010F   24181.94954805  .00000926  00000-0  85407-4 0  9994,2 55274  69.9994 142.1621 0002395 266.3924  93.6961 14.98313417 80743,6950.244,96.108,573.774,570.445,0.0
55274.0,STARLINK-5236,PAYLOAD,2024-06-30 03:35:45,14.9830942,0.0002782,69.9994,141.6591,261.9052,98.1791,-4.0072e-05,-5.71e-06,0.0,0 STARLINK-5236,1 55274U 23010F   24182.14983551 -.00000571  00000-0 -40072-4 0  9994,2 55274  69.9994 141.6591 0002782 261.9052  98.1791 14.98309420 80454,6950.257,96.108,574.055,570.188,0.0
55274.0,STARLINK-5236,PAYLOAD,2024-06-30 06:48:01,14.98310987,0.00028,69.9993,141.3219,263.1009,96.9831,-2.5801e-05,-4.01e-06,0.0,0 STARLINK-5236,1 55274U 23010F   24182.28335554 -.00000401  00000-0 -25801-4 0  9998,2 55274  69.9993 141.3219 0002800 263.1009  96.9831 14.98310987 80792,6950.252,96.108,574.063,570.171,0.0
55274.0,STARLINK-5236,PAYLOAD,2024-06-30 14:48:42,14.98318564,0.0002711,69.9994,140.4766,264.7056,95.3793,2.8793e-05,2.51e-06,0.0,0 STARLINK-5236,1 55274U 23010F   24182.61715310  .00000251  00000-0  28793-4 0  9991,2 55274  69.9994 140.4766 0002711 264.7056  95.3793 14.98318564 80520,6950.228,96.108,573.977,570.209,0.0
55274.0,STARLINK-5236,PAYLOAD,2024-07-01 03:37:45,14.98333384,0.0002858,69.9991,139.1313,263.6398,96.4436,6.7878e-05,7.17e-06,0.0,0 STARLINK-5236,1 55274U 23010F   24183.15122524  .00000717  00000-0  67878-4 0  9994,2 55274  69.9991 139.1313 0002858 263.6398  96.4436 14.98333384 80601,6950.182,96.107,574.034,570.061,0.0
55274.0,STARLINK-5236,PAYLOAD,2024-07-01 06:50:01,14.98335924,0.0002812,69.9993,138.7956,265.9556,94.1281,7.8244e-05,8.41e-06,0.0,0 STARLINK-5236,1 55274U 23010F   24183.28474352  .00000841  00000-0  78244-4 0  9994,2 55274  69.9993 138.7956 0002812 265.9556  94.1281 14.98335924 80944,6950.175,96.107,573.994,570.085,0.0
55274.0,STARLINK-5236,PAYLOAD,2024-07-01 21:15:14,14.98323078,0.0002857,69.9994,137.2804,265.6944,94.3888,0.00029665,3.448e-05,0.0,0 STARLINK-5236,1 55274U 23010F   24183.88558864  .00003448  00000-0  29665-3 0  9999,2 55274  69.9994 137.2804 0002857 265.6944  94.3888 14.98323078 81031,6950.214,96.107,574.065,570.094,0.0
55274.0,STARLINK-5236,PAYLOAD,2024-07-02 03:39:47,14.98334289,0.0002864,70.0003,136.6072,266.3593,93.7239,0.00038257,4.475e-05,0.0,0 STARLINK-5236,1 55274U 23010F   24184.15262892  .00004475  00000-0  38257-3 0  9991,2 55274  70.0003 136.6072 0002864 266.3593  93.7239 14.98334289 80758,6950.18,96.107,574.035,570.054,0.0
